ONEWEB-0597             
1 54663U 22166X   26196.52241456  .00000078  00000+0  15816-3 0  9992
2 54663  87.9233 238.3480 0001987  94.7473 265.3888 13.21824205175286
ONEWEB-0600             
1 54664U 22166Y   26196.50392799  .00000026  00000+0  32186-4 0  9991
2 54664  87.9236 238.3427 0001974 102.1132 258.0223 13.21825515175257
ONEWEB-0601             
1 54665U 22166Z   26196.49550706 -.00000003  00000+0 -38222-4 0  9998
2 54665  87.9234 238.3603 0001815  95.0094 265.1247 13.21825180175447
ONEWEB-0602             
1 54666U 22166AA  26196.53671171  .00000100  00000+0  21101-3 0  9997
2 54666  87.9232 238.3581 0001938 101.9484 258.1867 13.21823924175294
ONEWEB-0603             
1 54667U 22166AB  26196.54259575  .00000102  00000+0  21482-3 0  9993
2 54667  87.9243 238.3169 0001978  96.4083 263.7277 13.21823847175220
ONEWEB-0604             
1 54668U 22166AC  26196.15233862  .00000075  00000+0  15091-3 0  9990
2 54668  87.9244 238.4103 0002120  97.3522 262.7853 13.21823755175136
ONEWEB-0605             
1 54669U 22166AD  26196.52409332  .00000086  00000+0  17771-3 0  9998
2 54669  87.9235 238.3471 0001907  78.0609 282.0738 13.21824072175251
ONEWEB-0606             
1 54670U 22166AE  26196.54596512  .00000063  00000+0  12077-3 0  9998
2 54670  87.9233 238.3553 0002183  99.2838 260.8542 13.21825238175317
ONEWEB-0607             
1 54671U 22166AF  26196.51233706  .00000050  00000+0  89821-4 0  9997
2 54671  87.9241 238.3348 0001900  97.2878 262.8472 13.21825833175288
ONEWEB-0608             
1 54672U 22166AG  26196.51904289  .00000006  00000+0 -17703-4 0  9991
2 54672  87.9243 238.3309 0001710  85.4497 274.6833 13.21823784175299
ONEWEB-0610             
1 54673U 22166AH  26196.49887816  .00000127  00000+0  27642-3 0  9990
2 54673  87.9235 238.3465 0001493  93.0124 267.1181 13.21827028175191
ONEWEB-0611             
1 54674U 22166AJ  26196.49212568 -.00000033  00000+0 -11036-3 0  9995
2 54674  87.9234 238.3434 0002206  97.7501 262.3883 13.21825932175187
ONEWEB-0612             
1 54675U 22166AK  26196.50560018  .00000061  00000+0  11704-3 0  9995
2 54675  87.9246 238.3394 0001919  94.1816 265.9538 13.21826631175178
ONEWEB-0615             
1 54676U 22166AL  26196.48540282  .00000025  00000+0  28959-4 0  9995
2 54676  87.9237 238.3554 0002248 103.5117 256.6268 13.21823373175180
ONEWEB-0655             
1 54677U 22166AM  26196.53755240  .00000111  00000+0  23753-3 0  9996
2 54677  87.9233 238.3460 0001895 100.3082 259.8266 13.21823888175180
ONEWEB-0659             
1 54678U 22166AN  26196.47868106  .00000037  00000+0  59087-4 0  9993
2 54678  87.9230 238.3575 0002161  94.0130 266.1251 13.21824891175264
ONEWEB-0685             
1 54679U 22166AP  26196.47830204  .00000021  00000+0  20205-4 0  9995
2 54679  87.9229 238.3490 0001741  91.3951 268.7382 13.21848035175150
ONEWEB-0712             
1 54680U 22166AQ  26196.93885065  .00000057  00000+0  11425-3 0  9995
2 54680  87.9080 223.0635 0001845 106.5736 253.5598 13.16595994175848
ONEWEB-0714             
1 54681U 22166AR  26196.48374010  .00000026  00000+0  31612-4 0  9996
2 54681  87.9233 238.3461 0002053 105.3319 254.8042 13.21826094175270
ONEWEB-0532             
1 55140U 23004A   26196.96418723 -.00000043  00000+0 -14477-3 0  9992
2 55140  87.9143   0.1387 0001943  82.3680 277.7672 13.17648601171376
ONEWEB-0533             
1 55141U 23004B   26196.89386647 -.00000367  00000+0 -10549-2 0  9998
2 55141  87.8967 344.9623 0001661  96.4453 263.6864 13.12441723171821
ONEWEB-0541             
1 55142U 23004C   26196.94619498  .00000582  00000+0  16054-2 0  9992
2 55142  87.8892  15.3333 0002028  88.9203 271.2157 13.11416835169713
ONEWEB-0543             
1 55143U 23004D   26196.92106231  .00000018  00000+0  13968-4 0  9994
2 55143  87.9189 329.7537 0001892 105.4518 254.6823 13.18687165173481
ONEWEB-0544             
1 55144U 23004E   26196.91431412 -.00000017  00000+0 -77096-4 0  9999
2 55144  87.9188 329.7549 0002057 101.3329 258.8035 13.18687410173487
ONEWEB-0560             
1 55145U 23004F   26196.90757561 -.00000011  00000+0 -60264-4 0  9998
2 55145  87.9189 329.7458 0002090 104.3879 255.7485 13.18684827173493
ONEWEB-0565             
1 55146U 23004G   26196.90083409 -.00000044  00000+0 -14369-3 0  9992
2 55146  87.9180 329.7722 0002292  94.1806 265.9589 13.18686857173481
ONEWEB-0567             
1 55147U 23004H   26196.89408357 -.00000063  00000+0 -19271-3 0  9992
2 55147  87.9188 329.7604 0002269  98.7926 261.3463 13.18687371173489
ONEWEB-0569             
1 55148U 23004J   26196.87941514 -.00001016  00000+0 -28177-2 0  9991
2 55148  87.8969 314.5101 0002276 146.7128 213.4145 13.13472678173949
ONEWEB-0570             
1 55149U 23004K   26196.88565365 -.00000035  00000+0 -12213-3 0  9994
2 55149  87.9187 329.7599 0002051  87.7311 272.4056 13.18686235173476
ONEWEB-0571             
1 55150U 23004L   26196.87892235 -.00000171  00000+0 -46730-3 0  9996
2 55150  87.9186 329.7604 0003069  96.0009 264.1473 13.18686711173482
